H1 CPF 01  gfz 2021 10 21 00  7941 tandemx   
H2 1003001  6202 36605    2021 10 21 00 59 42 2021 10 26 00 00 42   120 1 1  0 0 0
H9
10 0 59510  29502.000000  0    5377978.452  -3760116.445  -2107287.912
10 0 59510  29622.000000  0    5002421.600  -3715108.919  -2947255.475
10 0 59510  29742.000000  0    4541107.373  -3598036.053  -3735498.174
10 0 59510  29862.000000  0    4003412.980  -3409584.828  -4458250.077
10 0 59510  29982.000000  0    3400005.099  -3151856.944  -5102924.108
10 0 59510  30102.000000  0    2742621.036  -2828344.815  -5658324.643
10 0 59510  30222.000000  0    2043836.074  -2443881.829  -6114831.625
10 0 59510  30342.000000  0    1316821.632  -2004567.999  -6464557.363
10 0 59510  30462.000000  0     575096.541  -1517669.770  -6701473.133
10 0 59510  30582.000000  0    -167722.008   -991498.256  -6821502.112
10 0 59510  30702.000000  0    -898163.423   -435268.651  -6822581.033
10 0 59510  30822.000000  0   -1603141.933    141057.681  -6704691.565
10 0 59510  30942.000000  0   -2270185.757    726947.238  -6469859.935
10 0 59510  31062.000000  0   -2887652.505   1311481.664  -6122125.752
10 0 59510  31182.000000  0   -3444929.012   1883556.068  -5667480.520
10 0 59510  31302.000000  0   -3932614.489   2432086.017  -5113776.121
10 0 59510  31422.000000  0   -4342683.621   2946220.718  -4470600.677
10 0 59510  31542.000000  0   -4668624.409   3415557.350  -3749122.359
10 0 59510  31662.000000  0   -4905548.458   3830352.725  -2961905.344
10 0 59510  31782.000000  0   -5050272.110   4181728.343  -2122697.443
10 0 59510  31902.000000  0   -5101364.761   4461862.695  -1246192.921
10 0 59510  32022.000000  0   -5059163.822   4664167.135   -347774.218
10 0 59510  32142.000000  0   -4925753.736   4783440.052    556763.115
10 0 59510  32262.000000  0   -4704909.170   4815994.465   1451496.426
10 0 59510  32382.000000  0   -4402003.522   4759754.376   2320666.107
10 0 59510  32502.000000  0   -4023883.945   4614318.810   3148962.284
10 0 59510  32622.000000  0   -3578717.616   4380991.666   3921801.515
10 0 59510  32742.000000  0   -3075814.046   4062776.773   4625588.224
10 0 59510  32862.000000  0   -2525427.475   3664338.895   5247956.522
10 0 59510  32982.000000  0   -1938543.400   3191930.986   5777987.014
10 0 59510  33102.000000  0   -1326655.154   2653290.338   6206394.793
10 0 59510  33222.000000  0    -701535.498   2057505.789   6525685.926
10 0 59510  33342.000000  0     -75009.976   1414860.411   6730281.126
10 0 59510  33462.000000  0     541266.536    736651.670   6816608.462
10 0 59510  33582.000000  0    1136026.176     34992.100   6783160.980
10 0 59510  33702.000000  0    1698592.912   -677406.086   6630521.730
10 0 59510  33822.000000  0    2219073.671  -1387460.947   6361354.761
10 0 59510  33942.000000  0    2688532.638  -2081960.123   5980362.096
10 0 59510  34062.000000  0    3099147.105  -2747807.411   5494207.088
10 0 59510  34182.000000  0    3444340.644  -3372271.345   4911403.332
10 0 59510  34302.000000  0    3718891.930  -3943231.973   4242171.529
10 0 59510  34422.000000  0    3919017.641  -4449420.931   3498264.494
10 0 59510  34542.000000  0    4042426.009  -4880649.609   2692762.470
10 0 59510  34662.000000  0    4088340.640  -5228020.057   1839842.282
10 0 59510  34782.000000  0    4057493.346  -5484112.969    954523.739
10 0 59510  34902.000000  0    3952085.428  -5643147.509     52398.506
10 0 59510  35022.000000  0    3775719.704  -5701109.560   -850651.389
10 0 59510  35142.000000  0    3533303.667  -5655845.950  -1738742.829
10 0 59510  35262.000000  0    3230925.685  -5507119.324  -2596279.035
10 0 59510  35382.000000  0    2875709.693  -5256625.218  -3408229.783
10 0 59510  35502.000000  0    2475650.068  -4907969.614  -4160398.769
10 0 59510  35622.000000  0    2039431.928  -4466608.709  -4839671.116
10 0 59510  35742.000000  0    1576242.708  -3939753.266  -5434236.947
10 0 59510  35862.000000  0    1095580.102  -3336241.205  -5933788.140
10 0 59510  35982.000000  0     607058.868  -2666382.314  -6329686.668
10 0 59510  36102.000000  0     120220.586  -1941777.502  -6615102.959
10 0 59510  36222.000000  0    -355649.083  -1175115.781  -6785122.790
10 0 59510  36342.000000  0    -811692.472   -379953.225  -6836822.961
10 0 59510  36462.000000  0   -1239640.169    429522.656  -6769315.506
10 0 59510  36582.000000  0   -1631957.509   1238739.439  -6583760.564
10 0 59510  36702.000000  0   -1981974.003   2032995.560  -6283348.533
10 0 59510  36822.000000  0   -2283994.931   2797720.670  -5873251.891
10 0 59510  36942.000000  0   -2533394.396   3518739.542  -5360546.193
10 0 59510  37062.000000  0   -2726687.207   4182534.024  -4754099.555
10 0 59510  37182.000000  0   -2861579.508   4776499.728  -4064430.529
10 0 59510  37302.000000  0   -2936995.260   5289190.690  -3303534.269
10 0 59510  37422.000000  0   -2953077.790   5710546.101  -2484681.669
10 0 59510  37542.000000  0   -2911167.742   6032097.666  -1622193.780
10 0 59510  37662.000000  0   -2813755.379   6247149.792   -731190.907
10 0 59510  37782.000000  0   -2664408.925   6350925.402    172674.828
10 0 59510  37902.000000  0   -2467682.223   6340679.155   1073499.812
10 0 59510  38022.000000  0   -2228999.357   6215768.556   1955420.635
10 0 59510  38142.000000  0   -1954520.350   5977679.245   2802903.448
10 0 59510  38262.000000  0   -1650993.606   5630007.925   3601024.956
10 0 59510  38382.000000  0   -1325598.744   5178403.867   4335740.518
10 0 59510  38502.000000  0    -985783.380   4630469.879   4994135.128
10 0 59510  38622.000000  0    -639095.891   3995624.511   5564650.865
10 0 59510  38742.000000  0    -293021.363   3284931.673   6037286.392
10 0 59510  38862.000000  0      45176.667   2510899.279   6403768.175
10 0 59510  38982.000000  0     368605.927   1687253.168   6657688.717
10 0 59510  39102.000000  0     670883.832    828689.851   6794613.191
10 0 59510  39222.000000  0     946261.689    -49387.486   6812151.053
10 0 59510  39342.000000  0    1189732.878   -931144.065   6709995.586
10 0 59510  39462.000000  0    1397123.555  -1800598.872   6489929.699
10 0 59510  39582.000000  0    1565164.485  -2641913.839   6155797.124
10 0 59510  39702.000000  0    1691542.795  -3439683.700   5713439.634
10 0 59510  39822.000000  0    1774932.449  -4179220.952   5170599.631
10 0 59510  39942.000000  0    1815003.660  -4846829.403   4536789.751
10 0 59510  40062.000000  0    1812411.791  -5430064.257   3823132.873
10 0 59510  40182.000000  0    1768764.743  -5917974.184   3042169.836
10 0 59510  40302.000000  0    1686568.056  -6301315.280   2207638.312
10 0 59510  40422.000000  0    1569151.245  -6572734.227   1334229.676
10 0 59510  40542.000000  0    1420576.072  -6726917.412    437326.095
10 0 59510  40662.000000  0    1245528.285  -6760700.499   -467277.405
10 0 59510  40782.000000  0    1049194.849  -6673135.874  -1363661.775
10 0 59510  40902.000000  0     837131.047  -6465510.912  -2236074.179
10 0 59510  41022.000000  0     615121.359  -6141321.695  -3069210.978
10 0 59510  41142.000000  0     389038.740  -5706204.642  -3848490.284
10 0 59510  41262.000000  0     164703.870  -5167826.461  -4560308.551
10 0 59510  41382.000000  0     -52251.824  -4535735.700  -5192274.645
10 0 59510  41502.000000  0    -256515.518  -3821181.998  -5733418.694
10 0 59510  41622.000000  0    -443212.178  -3036906.173  -6174373.287
10 0 59510  41742.000000  0    -608011.056  -2196906.653  -6507524.461
10 0 59510  41862.000000  0    -747218.015  -1316187.018  -6727131.586
10 0 59510  41982.000000  0    -857852.133   -410489.783  -6829416.420
10 0 59510  42102.000000  0    -937705.232    503981.042  -6812621.028
10 0 59510  42222.000000  0    -985383.777   1410842.704  -6677033.559
10 0 59510  42342.000000  0   -1000332.783   2293819.562  -6424983.836
10 0 59510  42462.000000  0    -982841.194   3137027.862  -6060808.338
10 0 59510  42582.000000  0    -934028.763   3925257.965  -5590784.823
10 0 59510  42702.000000  0    -855814.362   4644247.899  -5023034.382
10 0 59510  42822.000000  0    -750866.385   5280944.706  -4367393.067
10 0 59510  42942.000000  0    -622536.083   5823748.810  -3635251.713
10 0 59510  43062.000000  0    -474774.384   6262734.842  -2839366.168
10 0 59510  43182.000000  0    -312033.754   6589844.901  -1993641.091
10 0 59510  43302.000000  0    -139157.448   6799049.329  -1112888.928
10 0 59510  43422.000000  0      38741.689   6886469.788   -212568.752
10 0 59510  43542.000000  0     216410.306   6850461.071    691490.165
10 0 59510  43662.000000  0     388587.937   6691648.747   1583374.911
10 0 59510  43782.000000  0     550140.417   6412919.740   2447378.712
10 0 59510  43902.000000  0     696189.505   6019366.649   3268285.270
10 0 59510  44022.000000  0     822236.477   5518189.796   4031643.246
10 0 59510  44142.000000  0     924278.656   4918559.669   4724025.794
10 0 59510  44262.000000  0     998911.110   4231436.395   5333272.469
10 0 59510  44382.000000  0    1043414.703   3469357.555   5848697.583
10 0 59510  44502.000000  0    1055828.960   2646202.102   6261273.498
10 0 59510  44622.000000  0    1035005.708   1776930.741   6563783.652
10 0 59510  44742.000000  0     980644.367    877309.241   6750943.017
10 0 59510  44862.000000  0     893308.058    -36379.772   6819483.941
10 0 59510  44982.000000  0     774420.156   -947630.185   6768209.929
10 0 59510  45102.000000  0     626241.005  -1840010.587   6598016.426
10 0 59510  45222.000000  0     451825.077  -2697460.391   6311876.360
10 0 59510  45342.000000  0     254959.362  -3504580.664   5914791.226
10 0 59510  45462.000000  0      40084.503  -4246911.813   5413705.920
10 0 59510  45582.000000  0    -187799.558  -4911194.538   4817393.740
10 0 59510  45702.000000  0    -423242.455  -5485613.678   4136311.130
10 0 59510  45822.000000  0    -660466.256  -5960019.287   3382418.571
10 0 59510  45942.000000  0    -893498.881  -6326115.654   2568971.580
99
